     2.10           N: GPS NAV DATA                         RINEX VERSION / TYPE
teqc  2016Apr1      bjfs                20190111 00:25:03UTCPGM / RUN BY / DATE
    18                                                      LEAP SECONDS
Linux 2.4.21-27.ELsmp|Opteron|gcc|Linux x86_64|=+           COMMENT
    7.4506D-09 -1.4901D-08 -5.9605D-08  1.1921D-07          ION ALPHA
    9.0112D+04 -6.5536D+04 -1.3107D+05  4.5875D+05          ION BETA
    0.000000000000D+00-1.776356839400D-15   503808     2035 DELTA-UTC: A0,A1,T,W
                                                            END OF HEADER
26 19  1 10 12  0  0.0 9.243655949831D-05 1.068656274583D-11 0.000000000000D+00
    5.500000000000D+01 4.221875000000D+01 4.424470011221D-09 2.392349381149D+00
    2.222135663033D-06 3.512479946949D-03 9.985640645027D-06 5.153785070419D+03
    3.888000000000D+05 0.000000000000D+00-2.597823229834D+00 5.215406417847D-08
    9.535167646577D-01 1.840312500000D+02 8.209556278686D-02-7.934973380634D-09
   -2.335811581642D-10 1.000000000000D+00 2.035000000000D+03 0.000000000000D+00
    2.000000000000D+00 0.000000000000D+00 7.450580596924D-09 5.500000000000D+01
    3.816180000000D+05 4.000000000000D+00
 3 19  1 10 12  0  0.0 1.762369647622D-04 2.614797267597D-12 0.000000000000D+00
    1.100000000000D+01-6.821875000000D+01 4.320537110570D-09-2.702417836310D+00
   -3.512948751450D-06 1.871491200291D-03 1.063384115696D-05 5.153610612869D+03
    3.888000000000D+05 2.235174179077D-08 5.674289915808D-01-8.009374141693D-08
    9.623937325448D-01 1.723125000000D+02 6.853509953456D-01-7.880685405037D-09
    4.678766317969D-11 1.000000000000D+00 2.035000000000D+03 0.000000000000D+00
    2.000000000000D+00 0.000000000000D+00 2.328306436539D-09 1.100000000000D+01
    3.816180000000D+05 4.000000000000D+00
23 19  1 10 12  0  0.0-2.009570598602D-04 1.136868377216D-12 0.000000000000D+00
    1.300000000000D+01 2.943750000000D+01 5.133428113600D-09-8.495811896095D-01
    1.581385731697D-06 1.268455083482D-02 7.767230272293D-06 5.153657707214D+03
    3.888000000000D+05 1.396983861923D-07 1.596415447054D+00 2.980232238770D-07
    9.428985146393D-01 2.182500000000D+02-2.309335247711D+00-8.379634759709D-09
    2.789401904071D-10 1.000000000000D+00 2.035000000000D+03 0.000000000000D+00
    2.000000000000D+00 0.000000000000D+00-2.002343535423D-08 1.300000000000D+01
    3.816180000000D+05 4.000000000000D+00
21 19  1 10 12  0  0.0-2.716816961765D-04 6.934897101019D-12 0.000000000000D+00
    9.600000000000D+01-6.359375000000D+01 4.931276836045D-09 2.930232028406D+00
   -3.386288881302D-06 2.470349054784D-02 2.497807145119D-06 5.153559223175D+03
    3.888000000000D+05 4.731118679047D-07-5.352707664845D-01-5.215406417847D-08
    9.469090006864D-01 3.216562500000D+02-1.495318304661D+00-8.116409509606D-09
   -1.246480492344D-10 1.000000000000D+00 2.035000000000D+03 0.000000000000D+00
    2.000000000000D+00 0.000000000000D+00-9.778887033463D-09 9.600000000000D+01
    3.816180000000D+05 4.000000000000D+00
14 19  1 10 12  0  0.0-9.337579831481D-05 5.684341886081D-13 0.000000000000D+00
    6.100000000000D+01 3.115625000000D+01 4.821629411647D-09 3.176193858252D-01
    1.681968569756D-06 1.003658911213D-02 7.301568984985D-06 5.153657052994D+03
    3.888000000000D+05-1.452863216400D-07 1.691936043745D+00 8.195638656616D-08
    9.601842405563D-01 2.410937500000D+02-1.949417801945D+00-8.302131531388D-09
    2.132231673151D-10 1.000000000000D+00 2.035000000000D+03 0.000000000000D+00
    2.000000000000D+00 0.000000000000D+00-9.778887033463D-09 6.100000000000D+01
    3.816180000000D+05 4.000000000000D+00
31 19  1 10 12  0  0.0 6.676651537418D-05-2.614797267597D-12 0.000000000000D+00
    1.300000000000D+01-1.046875000000D+01 4.707696094439D-09-2.648023749412D+00
   -5.681067705154D-07 9.160714456812D-03 6.508082151413D-06 5.153808477402D+03
    3.888000000000D+05-1.713633537292D-07 2.690633269001D+00-2.980232238770D-08
    9.612128943296D-01 2.567500000000D+02-3.602943402769D-02-8.044263647298D-09
   -3.764442518427D-10 1.000000000000D+00 2.035000000000D+03 0.000000000000D+00
    2.000000000000D+00 0.000000000000D+00-1.350417733192D-08 1.300000000000D+01
    3.816180000000D+05 4.000000000000D+00
16 19  1 10 12  0  0.0-1.186784356833D-05-2.273736754432D-12 0.000000000000D+00
    9.200000000000D+01 5.500000000000D+01 3.717654855247D-09 1.477039827906D+00
    2.967193722725D-06 1.040730299428D-02 1.031905412674D-05 5.153762258530D+03
    3.888000000000D+05-8.754432201386D-08-2.490285473563D+00 1.024454832077D-07
    9.849731094550D-01 1.959375000000D+02 5.248698563534D-01-7.669248026393D-09
   -2.585821995580D-10 1.000000000000D+00 2.035000000000D+03 0.000000000000D+00
    2.800000000000D+00 0.000000000000D+00-1.071020960808D-08 9.200000000000D+01
    3.816180000000D+05 4.000000000000D+00
27 19  1 10 12  0  0.0-4.659919068217D-05-6.480149750132D-12 0.000000000000D+00
    9.200000000000D+01 7.621875000000D+01 4.194103272665D-09 5.641038402292D-01
    3.965571522713D-06 6.431415444240D-03 4.848465323448D-06 5.153705343246D+03
    3.888000000000D+05 4.470348358154D-08-1.530877224735D+00 1.378357410431D-07
    9.780815788751D-01 2.958125000000D+02 4.250829253358D-01-8.117480982809D-09
    2.400099973798D-10 1.000000000000D+00 2.035000000000D+03 0.000000000000D+00
    2.000000000000D+00 0.000000000000D+00 1.862645149231D-09 9.200000000000D+01
    3.816180000000D+05 4.000000000000D+00
 9 19  1 10 12  0  0.0 4.734196700156D-04-4.547473508865D-12 0.000000000000D+00
    5.200000000000D+01 2.625000000000D+01 4.842344560231D-09 9.576542202908D-01
    1.255422830582D-06 1.480790670030D-03 8.104369044304D-06 5.153752811432D+03
    3.888000000000D+05 0.000000000000D+00 1.600211504421D+00 5.587935447693D-09
    9.520832380656D-01 2.172500000000D+02 1.696837198206D+00-8.120338244682D-09
    3.235849071817D-10 1.000000000000D+00 2.035000000000D+03 0.000000000000D+00
    2.000000000000D+00 0.000000000000D+00 1.396983861923D-09 5.200000000000D+01
    3.816180000000D+05 4.000000000000D+00
 8 19  1 10 12  0  0.0-1.285793259740D-04-1.364242052659D-12 0.000000000000D+00
    4.200000000000D+01 7.912500000000D+01 4.318394164165D-09 9.268026121803D-01
    4.090368747711D-06 4.098425735720D-03 4.796311259270D-06 5.153682142258D+03
    3.888000000000D+05 1.303851604462D-07-1.541156992083D+00 9.313225746155D-09
    9.698359640064D-01 2.902500000000D+02-3.870416088308D-01-8.156054018102D-09
    2.760829285336D-10 1.000000000000D+00 2.035000000000D+03 0.000000000000D+00
    2.000000000000D+00 0.000000000000D+00 5.122274160385D-09 4.200000000000D+01
    3.816180000000D+05 4.000000000000D+00
29 19  1 10 11 59 44.0 2.964236773551D-04-8.412825991400D-12 0.000000000000D+00
    9.000000000000D+00 6.728125000000D+01 3.983380209489D-09 1.275115632907D+00
    3.539025783539D-06 6.294345948845D-04 4.680827260017D-06 5.153579919815D+03
    3.887840000000D+05-3.911554813385D-08-1.464555004137D+00-9.313225746155D-09
    9.848985650014D-01 3.000625000000D+02 1.522356768521D+00-7.976046520067D-09
    3.039412318009D-10 1.000000000000D+00 2.035000000000D+03 0.000000000000D+00
    2.000000000000D+00 0.000000000000D+00-1.024454832077D-08 9.000000000000D+00
    3.816180000000D+05 4.000000000000D+00
 7 19  1 10 11 59 44.0 5.433708429337D-05-7.048583938740D-12 0.000000000000D+00
    1.000000000000D+00-7.187500000000D+00 4.758412492694D-09-2.253261291983D+00
   -5.103647708893D-07 1.213802909479D-02 6.293877959251D-06 5.153612419128D+03
    3.887840000000D+05 5.029141902924D-08 2.677150654642D+00-1.229345798492D-07
    9.566135252388D-01 2.551250000000D+02-2.479897302522D+00-7.968903365383D-09
   -2.225092684042D-10 1.000000000000D+00 2.035000000000D+03 0.000000000000D+00
    2.000000000000D+00 0.000000000000D+00-1.117587089539D-08 1.000000000000D+00
    3.836880000000D+05 4.000000000000D+00
16 19  1 10 11 59 44.0-1.186784356833D-05-2.273736754432D-12 0.000000000000D+00
    1.100000000000D+01 5.500000000000D+01 3.717297697513D-09 1.474705762591D+00
    2.967193722725D-06 1.040730241220D-02 1.031905412674D-05 5.153762258530D+03
    3.887840000000D+05-8.754432201386D-08-2.490285338974D+00 1.024454832077D-07
    9.849731196955D-01 1.959375000000D+02 5.248703200985D-01-7.668890868658D-09
   -2.589393572922D-10 1.000000000000D+00 2.035000000000D+03 0.000000000000D+00
    2.000000000000D+00 0.000000000000D+00-1.071020960808D-08 1.100000000000D+01
    3.852060000000D+05 4.000000000000D+00
11 19  1 10 12  0  0.0-6.772722117603D-04 5.229594535194D-12 0.000000000000D+00
    1.100000000000D+01-8.750000000000D-01 5.834885903561D-09-2.302201062909D+00
    2.738088369370D-07 1.662072527688D-02 1.149252057076D-06 5.153681045532D+03
    3.888000000000D+05 1.545995473862D-07-9.167257471813D-01 1.955777406693D-07
    9.079533530673D-01 3.255000000000D+02 1.854134374996D+00-8.760007746627D-09
    1.357199389945D-10 1.000000000000D+00 2.035000000000D+03 0.000000000000D+00
    2.000000000000D+00 0.000000000000D+00-1.210719347000D-08 1.100000000000D+01
    3.872280000000D+05 4.000000000000D+00
18 19  1 10 12  0  0.0 1.437170431018D-05 3.751665644813D-12 0.000000000000D+00
    2.000000000000D+01-6.331250000000D+01 4.909847371994D-09-1.830171443312D+00
   -3.017485141754D-06 1.497858110815D-02 2.888962626457D-06 5.153605440140D+03
    3.888000000000D+05 2.440065145493D-07-5.268942321511D-01 1.285225152969D-07
    9.526154432741D-01 3.162187500000D+02 1.368610357235D+00-8.308917528338D-09
   -3.571577341961D-11 1.000000000000D+00 2.035000000000D+03 0.000000000000D+00
    2.000000000000D+00 0.000000000000D+00-6.519258022308D-09 2.000000000000D+01
    3.875280000000D+05 4.000000000000D+00
